[{"OBJECT_NAME":"GHGSAT-C5","OBJECT_ID":"2022-057N","EPOCH":"2026-03-09T21:50:12.501024","MEAN_MOTION":15.32921902,"ECCENTRICITY":0.00082696,"INCLINATION":97.6522,"RA_OF_ASC_NODE":212.4963,"ARG_OF_PERICENTER":109.8004,"MEAN_ANOMALY":250.413,"EPHEMERIS_TYPE":0,"CLASSIFICATION_TYPE":"U","NORAD_CAT_ID":52744,"ELEMENT_SET_NO":999,"REV_AT_EPOCH":21032,"BSTAR":0.00029214604,"MEAN_MOTION_DOT":9.218e-5,"MEAN_MOTION_DDOT":0},{"OBJECT_NAME":"STARLINK-35014","OBJECT_ID":"2025-192AB","EPOCH":"2026-03-09T17:06:31.112640","MEAN_MOTION":15.30189497,"ECCENTRICITY":9.794e-5,"INCLINATION":53.1599,"RA_OF_ASC_NODE":232.532,"ARG_OF_PERICENTER":49.0142,"MEAN_ANOMALY":311.0944,"EPHEMERIS_TYPE":0,"CLASSIFICATION_TYPE":"U","NORAD_CAT_ID":65429,"ELEMENT_SET_NO":999,"REV_AT_EPOCH":2938,"BSTAR":0.0008248158,"MEAN_MOTION_DOT":0.00024141,"MEAN_MOTION_DDOT":0}]
